sat21819
1 21819U 91086A   20046.71660905  .00000998  00000-0  19836-3 0  9997
2 21819  82.5984 199.7294 1516297 173.5653 188.7624 12.05136652229506
